SUCHAI                  
1 42788U 17036Z   17269.21852571  .00002361  00000-0  10958-3 0  9990
2 42788  97.4398 327.8516 0010602 282.7619  77.2431 15.20972277 14457